GLOBALSTAR M057         
1 25943U 99058A   24152.51720405 -.00000118  00000+0 -22540-3 0  9999
2 25943  52.0008 351.3445 0001542 323.5329  36.5415 12.24787518120163
GLOBALSTAR M059         
1 25944U 99058B   24152.53215549 -.00000050  00000+0  45233-3 0  9998
2 25944  51.9985 159.6569 0000630 283.4064 253.9793 11.99962588116970
GLOBALSTAR M056         
1 25945U 99058C   24152.37901984 -.00000005  00000+0  95835-3 0  9999
2 25945  51.9927 171.8351 0000796 148.7611 314.6616 12.04776099116602
GLOBALSTAR M031         
1 25946U 99058D   24152.21402351 -.00000036  00000+0  54919-3 0  9999
2 25946  51.9964  87.4735 0001573 103.1703  44.9259 12.16010270118077
GLOBALSTAR M029         
1 25963U 99062C   24152.17992825 -.00000075  00000+0  13463-3 0  9990
2 25963  51.9826  48.9726 0003197  81.5853  86.3577 11.99878654123262
GLOBALSTAR M061         
1 25964U 99062D   24152.24941987 -.00000114  00000+0 -55936-3 0  9998
2 25964  51.9786 103.1594 0006373 329.9594 178.1243 11.76762379 76218
